satname,norad_id,inclination_deg,eccentricity,mean_motion_rev_per_day,perigee_km,apogee_km,l1,l2
STARLINK-1300,45374,53.0549,0.000115,15.06358266,546.5430397965838,548.1358993845897,1 45374U 20019Q   25295.56150574 -.00001857  00000+0 -10592-3 0  9993,2 45374  53.0549  66.6974 0001150 101.6941 258.4177 15.06358266308915
STARLINK-1302,45375,53.0545,0.0001378,15.06386587,546.2983484603483,548.2069858526165,1 45375U 20019R   25295.50986749 -.00001121  00000+0 -56413-4 0  9996,2 45375  53.0545  66.9305 0001378  92.2656 267.8491 15.06386587308902
STARLINK-1304,45376,53.0565,0.0001282,15.06390067,546.3541677319781,548.1298349079161,1 45376U 20019S   25295.79369267  .00000324  00000+0  40636-4 0  9990,2 45376  53.0565  65.6576 0001282  95.4808 264.6327 15.06390067308944
STARLINK-1305,45377,53.0535,0.0001092,15.28502382,479.53960145373185,481.0374815920013,1 45377U 20019T   25295.91668980  .01849164  00000+0  59839-1 0  9995,2 45377  53.0535  64.2886 0001092  62.0422 165.7880 15.28502382  5748
STARLINK-1319,45379,53.0555,5.88e-05,15.0639596,546.8167287608121,547.6311512073544,1 45379U 20019V   25295.74578434 -.00001056  00000+0 -52065-4 0  9990,2 45379  53.0555  65.8737 0000588  98.7901 261.3155 15.06395960308945
STARLINK-1266,45383,53.0545,0.0001175,15.06390731,546.4262344404297,548.0536980274946,1 45383U 20019Z   25295.74761447  .00003055  00000+0  22398-3 0  9997,2 45383  53.0545  45.8661 0001175 100.8462 259.2659 15.06390731309210
STARLINK-1267,45384,53.0548,0.0001223,15.06393169,546.3855213594252,548.0794667376695,1 45384U 20019AA  25295.73295189  .00008860  00000+0  61309-3 0  9996,2 45384  53.0548  46.5870 0001223  74.8028 285.3096 15.06393169309208
STARLINK-1272,45386,53.0544,9.48e-05,15.2563811,488.21898781769687,489.5209723411199,1 45386U 20019AC  25295.91668980  .01009524  00000+0  35998-1 0  9993,2 45386  53.0544  44.4789 0000948  85.2711 116.4900 15.25638110  5682
STARLINK-1274,45387,53.0359,0.0004468,15.28131943,478.33203787168077,484.46171734471045,1 45387U 20019AD  25295.56622368  .00069681  00000+0  24955-2 0  9996,2 45387  53.0359  33.3395 0004468 198.6891 161.3944 15.28131943309371
STARLINK-1280,45388,53.055,0.0001497,15.28278423,479.93175620378497,481.9853694152898,1 45388U 20019AE  25295.91668980  .01825237  00000+0  59545-1 0  9996,2 45388  53.0550  64.2474 0001497  81.9454 289.1027 15.28278423  5733
STARLINK-1283,45389,53.0553,0.0001223,15.29119329,477.60509859469494,479.28221822374144,1 45389U 20019AF  25295.91668980 -.00003446  00000+0 -10793-3 0  9992,2 45389  53.0553  42.9613 0001223  33.8623  27.0772 15.29119329  5798
STARLINK-1284,45390,53.0562,0.0001496,15.06389727,546.207006528135,548.2790802371155,1 45390U 20019AG  25295.68495602  .00002868  00000+0  21143-3 0  9993,2 45390  53.0562  46.1471 0001496  81.1031 279.0127 15.06389727309201
STARLINK-1292,45394,53.0477,0.0007902,15.88856845,300.2053738112327,310.7681728225825,1 45394U 20019AL  25295.91668980  .00280972  00000+0  94035-3 0  9998,2 45394  53.0477   0.5190 0007902 342.1306 359.3764 15.88856845  5937
STARLINK-1297,45395,53.0557,0.0001727,15.0638637,546.0573173297998,548.4493471505557,1 45395U 20019AM  25295.52277956 -.00000422  00000+0 -94091-5 0  9991,2 45395  53.0557  46.8743 0001727  87.6947 272.4240 15.06386370308363
STARLINK-1307,45397,53.0577,0.0001531,15.06395394,546.1654016753655,548.2859477263582,1 45397U 20019AP  25295.71444205  .00001596  00000+0  12601-3 0  9993,2 45397  53.0577  46.0086 0001531  97.3563 262.7600 15.06395394309037
STARLINK-1312,45398,53.0449,0.0004886,15.91500228,294.8219989728577,301.34600213459726,1 45398U 20019AQ  25295.91668980  .00376319  64695-4  11454-2 0  9991,2 45398  53.0449 359.9528 0004886 334.0168 219.1797 15.91500228  5923
STARLINK-1255,45399,53.0517,0.0001381,15.27456531,482.4712506868691,484.36641240754216,1 45399U 20019AR  25295.91668980 -.00017790  00000+0 -64211-3 0  9994,2 45399  53.0517  34.0456 0001381  49.0703 330.2198 15.27456531  5797
STARLINK-1259,45403,53.0402,0.0004593,16.11877191,238.65817056291507,244.73915160118486,1 45403U 20019AV  25295.59112441  .00911605  50197-3  83623-3 0  9990,2 45403  53.0402 340.2260 0004593  30.3381 329.7919 16.11877191309923
STARLINK-1260,45404,53.0561,0.0001485,15.06380733,546.2421861177545,548.2990321776724,1 45404U 20019AW  25295.51633455 -.00000107  00000+0  11708-4 0  9993,2 45404  53.0561  36.9013 0001485  97.4243 262.6914 15.06380733309039
STARLINK-1263,45405,53.055,0.0001311,15.06387118,546.343121322283,548.1589580662903,1 45405U 20019AX  25295.56794058  .00005197  00000+0  36767-3 0  9990,2 45405  53.0550  36.6727 0001311  91.5996 268.5143 15.06387118309049
STARLINK-1265,45406,53.0551,0.000127,15.06396349,546.3432270620733,548.1022684380014,1 45406U 20019AY  25295.57530057  .00005678  00000+0  39981-3 0  9994,2 45406  53.0551  36.6390 0001270  93.8139 266.2995 15.06396349309041
STARLINK-1278,45408,53.0536,0.0001287,15.26331367,485.9069848795607,487.67401721833176,1 45408U 20019BA  25295.91668980  .01816363  00000+0  62870-1 0  9994,2 45408  53.0536  64.4298 0001287  58.5636 198.6728 15.26331367  5743
STARLINK-1296,45412,53.055,0.0001422,15.06394239,546.244427554092,548.2140017055326,1 45412U 20019BE  25295.57898760  .00003217  00000+0  23483-3 0  9996,2 45412  53.0550  36.6207 0001422  96.0655 264.0496 15.06394239309049
STARLINK-1298,45413,53.0501,0.000756,15.50411779,410.3868956079241,420.65890938049415,1 45413U 20019BF  25295.49106387  .00108350  00000+0  18538-2 0  9993,2 45413  53.0501  16.0256 0007560 264.7525  95.2620 15.50411779309424
STARLINK-1309,45414,53.0559,0.0001614,15.06393507,546.1137036504533,548.3492125887342,1 45414U 20019BG  25295.66008312  .00001941  00000+0  14918-3 0  9999,2 45414  53.0559  36.2577 0001614  86.3364 273.7810 15.06393507309042
STARLINK-1316,45415,53.0553,0.0001288,15.06393457,546.3396238863543,548.1235988406406,1 45415U 20019BH  25295.68588079  .00001651  00000+0  12974-3 0  9993,2 45415  53.0553  36.1398 0001288  97.8943 262.2192 15.06393457309088
STARLINK-1318,45416,53.0539,0.0003932,15.59255369,387.1497804079045,392.4720946659836,1 45416U 20019BJ  25295.46137473  .00054461  00000+0  68221-3 0  9991,2 45416  53.0539   8.2329 0003932   7.3683 352.7387 15.59255369309440
STARLINK-1286,45417,53.0536,0.0001409,15.2024041,504.144992085221,506.0846924543739,1 45417U 20019BK  25295.91668980  .01893516  00000+0  78106-1 0  9998,2 45417  53.0536  64.6906 0001409  90.9525  89.1676 15.20240410  5786
STARLINK-1308,45419,53.0542,0.0001277,15.06387358,546.3659321597315,548.134676077203,1 45419U 20019BM  25295.52092762  .00001626  00000+0  12809-3 0  9998,2 45419  53.0542  66.8806 0001277  78.2424 281.8709 15.06387358308644
STARLINK-1329,45531,53.0555,0.0001433,15.06399323,546.2212301008622,548.2060355922349,1 45531U 20025A   25295.48961897  .00007358  00000+0  51233-3 0  9991,2 45531  53.0555   7.0220 0001433  87.6322 272.4831 15.06399323304266
STARLINK-1338,45532,53.0557,0.0001445,15.06392423,546.2340642270528,548.235496671602,1 45532U 20025B   25295.50067303  .00003818  00000+0  27515-3 0  9997,2 45532  53.0557   6.9724 0001445 102.1583 257.9567 15.06392423304269
STARLINK-1350,45535,53.0742,0.0001064,15.31961241,469.23272239953894,470.6899977305593,1 45535U 20025E   25295.48301097  .00014472  00000+0  47334-3 0  9997,2 45535  53.0742 320.2402 0001064  63.0435 297.0674 15.31961241304948
STARLINK-1362,45538,53.0557,0.0001272,15.06390973,546.3583166755488,548.120132387071,1 45538U 20025H   25295.46652344  .00004040  00000+0  28999-3 0  9998,2 45538  53.0557   6.8443 0001272 104.3329 255.7801 15.06390973304267
STARLINK-1368,45540,53.0551,0.0001382,15.06433768,546.1509969469271,548.0651346831182,1 45540U 20025K   25295.60386821  .00016857  00000+0  11468-2 0  9992,2 45540  53.0551   6.5099 0001382 106.2567 253.8574 15.06433768304272
STARLINK-1371,45542,53.0548,0.0001366,15.06393037,546.2868930844734,548.1789041407746,1 45542U 20025M   25295.50804631  .00002794  00000+0  20640-3 0  9995,2 45542  53.0548   6.9406 0001366 101.3416 258.7727 15.06393037304264
STARLINK-1372,45543,53.0558,0.0001416,15.06430052,546.1388381037978,548.1000707316898,1 45543U 20025N   25295.47854994  .00014121  00000+0  96423-3 0  9998,2 45543  53.0558   7.0733 0001416  96.0060 264.1091 15.06430052303355
STARLINK-1373,45544,53.0569,0.0001644,15.06381023,546.1311834558564,548.4082571854988,1 45544U 20025P   25295.49699586  .00001574  00000+0  12460-3 0  9992,2 45544  53.0569   6.9921 0001644 109.3948 250.7218 15.06381023304267
STARLINK-1294,45551,53.0493,0.0007937,15.57986324,388.110986284054,398.8602600360582,1 45551U 20025W   25295.45451059  .00070550  00000+0  92233-3 0  9993,2 45551  53.0493 303.6820 0007937  22.7633 337.3729 15.57986324305155
STARLINK-1325,45554,53.0574,0.0002031,15.56517601,396.3685536870189,399.1209168478845,1 45554U 20025Z   25295.91668980  .00145968  00000+0  19919-2 0  9995,2 45554  53.0574 294.3571 0002031  91.2029 167.6098 15.56517601  5851
STARLINK-1327,45555,53.0546,0.0001634,15.06405413,546.0633686790115,548.3265671661284,1 45555U 20025AA  25295.53568549  .00004342  00000+0  31020-3 0  9992,2 45555  53.0546 346.8159 0001634 119.3758 240.7395 15.06405413304548
STARLINK-1336,45557,53.029,0.0002375,16.18115898,223.1041901384806,226.24052458322694,1 45557U 20025AC  25295.42124171  .01432225  17241-2  86311-3 0  9998,2 45557  53.0290 282.5070 0002375 110.3805 249.7487 16.18115898305430
STARLINK-1356,45564,53.0542,0.0001372,15.064084,546.2356589777501,548.1359675577096,1 45564U 20025AK  25295.53937902  .00011750  00000+0  80618-3 0  9993,2 45564  53.0542 346.7981 0001372  83.6146 276.4999 15.06408400304544
STARLINK-1357,45565,53.0629,0.0006012,15.30564717,470.0067257471892,478.2458871468607,1 45565U 20025AL  25295.51623140  .00071058  00000+0  23605-2 0  9997,2 45565  53.0629 333.5175 0006012 301.4909  58.5503 15.30564717304736
